#dP2018  6  8  0  0  0.00000000      96 __u+U IGS08 FIT  IAC
## 2004 432000.00000000   900.00000000 58277 0.0000000000000
+   84   C01C02C03C04C05C06C07C08C09C11C12C13C14E01E02E03E04
+        E05E07E08E09E11E12E14E18E19E24E26E30G01G02G03G05G06
+        G07G08G09G10G11G12G13G14G15G16G17G18G19G20G21G22G23
+        G24G25G26G27G28G29G30G31G32J01R01R02R03R04R05R07R08
+        R09R10R11R13R14R15R16R17R18R19R20R21R22R23R24R26  0
++        12 12 12 14 12  8  8  8  8  7  8  8  8  7  7  7  7
++         7  7  7  7  7  7  7  8  7  7  7  7  3  3  3  3  3
++         3  3  3  3  3  3  3  3  3  3  3  3  3  3  3  3  3
++         3  3  3  3  3  3  3  3  3  9  5  5  5  5  6  5  5
++         5  5  5  5  5  5  5  5  5  6  6  5  7  5  5  8  0
%c M  cc GPS ccc cccc cccc cccc cccc ccccc ccccc ccccc ccccc
%c cc cc ccc ccc cccc cccc cccc cccc ccccc ccccc ccccc ccccc
%f  1.2500000  1.025000000  0.00000000000  0.000000000000000
%f  0.0000000  0.000000000  0.00000000000  0.000000000000000
%i    0    0    0    0      0      0      0      0         0
%i    0    0    0    0      0      0      0      0         0
/* INFORMATION & ANALYSIS CENTER (IAC)            FINAL DATA
/* S/V CLOCKS ARE ALIGNED TO GPS & GLONASS TIME RESPECTIVELY
/* USING THE BROADCAST EPHEMERIS                            
/* PCV:IGS14_2000 OL/AL:FES2004  NONE     YN ORB:CoN CLK:CoN
*  2018 06 08 22 45  0.00000000
PC01 -32325.259080  27088.807906    321.642700   -192.125596
PC02   4379.796913  41924.155121  -1190.376028    159.802269
PC03 -14749.847924  39463.030548   -468.908334     53.541696
PC04 -39620.133865  14431.054154   -139.461271    -54.237827
PC05  21870.921504  36035.831308   -856.810028    377.440148
PC06 -22681.032637  34449.172441   8158.409304     46.891165
PC07  -8877.101344  32132.513663  26184.312538    116.451326
PC08 -17696.877671  17877.677090 -33826.759691    380.978834
PC09 -11396.312113  34215.121906  21758.852183    -55.101616
PC11 -15492.468566  16062.172629 -16747.494645   -541.732680
PC12 -26849.862203   7764.965059    489.870040    470.931225
PC13  -2660.240995  23412.196068 -34945.925643   -367.621799
PC14 -10692.849041  24753.210650  -7019.309791    311.445578
PE01  13608.505540  -8889.159704 -24741.449777   -363.851132
PE02 -13583.962936   8926.043794  24733.326896     15.805081
PE03 -21066.844760  18001.679372 -10410.765818    -41.305072
PE04  10938.639690 -26335.083811  -7931.613969    -51.078554
PE05 -18897.881508   -939.178645 -22752.686046    249.545440
PE07   5689.297107  19269.119436  21754.885559     18.682794
PE08 -10713.382215  26422.060061   7984.520206   6568.076422
PE09  -5721.545517 -19158.665006 -21807.639317   6768.651127
PE11 -16132.216615 -14479.421116  20139.002573    931.515460
PE12   6686.983540 -15826.272989  24108.201766   4339.786557
PE14  20546.690052  10366.039159 -22963.184869   6569.947376
PE18 -17868.202272  -4401.430549  14732.772993   6147.177694
PE19  21313.261737 -16636.902618  12067.123723     23.056265
PE24 -14039.065047 -26001.294959   1808.723645   6663.259565
PE26  28797.065069   4981.964219  -4709.173651   5844.111580
PE30    309.566974  24776.359116  16180.056029   5773.917715
PG01  22568.237113  14100.632409  -2639.369512    -54.579967
PG02  -5251.754970 -17819.115056  19631.173362     91.473849
PG03  13065.256869  14661.450295  17893.014278     85.681326
PG05  -2439.773433 -26308.036890  -1215.045573     -6.487367
PG06  10199.791788 -11422.561212  21735.037195    397.548459
PG07  23668.859950   3603.850782 -11761.738374    178.452052
PG08   9188.101956  11912.985155 -21846.368987   -104.099051
PG09  23382.872279  -5567.869073  11284.871910    514.564473
PG10 -11376.831847  16572.512698 -17233.398189    187.714133
PG11  21567.348433  10571.566146 -11720.556356   -734.355252
PG12  -9945.859515 -18876.017913  15747.089114    328.603386
PG13    696.170579 -16335.190361 -21038.886847    -93.675615
PG14 -14003.961391  18110.352646  13610.021519    -97.310986
PG15 -12299.154056 -10649.084943 -21243.121856   -352.955953
PG16   -560.652153  26312.652665   -907.910591     22.088165
PG17  20705.633527 -15745.768211   5406.722396    -90.138057
PG18  17395.946112  17105.847832 -11176.493477     19.286142
PG19  16318.258385 -17128.485122  11953.171593   -429.959355
PG20 -15544.996611   3953.162684 -21312.976073    510.061371
PG21 -22258.050301    539.907329 -13667.184147   -384.047587
PG22  10918.737734  21363.469565  11657.782127   -419.504915
PG23  17898.185697   5135.518738  19384.495097   -216.122084
PG24 -21139.359563 -15111.270371  -6304.491946    -50.873826
PG25 -14771.820540  -4216.650532  21510.722845   -597.926318
PG26  -5536.524533  23999.911069   9752.363981   -122.010269
PG27  -3850.935615  17838.878834 -19281.088122    366.652053
PG28  12826.272590 -13484.051960 -18350.887015    722.102231
PG29 -22779.956908   2286.261653  13429.067188    435.810595
PG30  18333.017469  -4810.306031 -18664.346546     64.758467
PG31  -9077.813300  12263.403215  21793.462198    115.935428
PG32 -20353.423818  16487.485021   4144.265406   -497.258424
PJ01 -20632.867614  30967.190149 -15182.339104   -227.314963
PR01   3277.058291  16304.306942  19356.503558     27.379208
PR02  12759.358630  -3177.803165  21911.452823    313.855691
PR03  13726.156962 -18851.202745  10432.439394    134.439036
PR04   6366.042019 -23518.462893  -7554.637172    264.059223
PR05  -4551.825187 -14632.481623 -20390.662949    -21.380682
PR07 -13598.629005  19121.694337  -9923.458538    -39.583181
PR08  -6706.452472  23593.635910   7056.659307     22.827239
PR09 -16478.907281  -8488.841543  17499.057506     24.278969
PR10  -7753.739119   7430.790362  23116.067464     25.768300
PR11   5476.865845  19896.625655  15037.689858    -30.802026
PR13  16485.670484   8328.722483 -17619.488012    -11.205306
PR14   8118.818641  -7361.933825 -23024.723009     28.011967
PR15  -2695.982171 -17947.885142 -17965.416052    -11.401523
PR16 -15588.989965 -20250.174799    690.300387     94.449491
PR17  21307.408854  -7637.925570  11737.635199    138.648912
PR18   6200.821047 -10847.713213  22259.561810    198.573837
PR19 -12607.611069  -8264.500983  20571.954397    -54.340731
PR20 -24821.897077   -548.134176   5730.599954   -340.923555
PR21 -21126.410484   7731.856204 -12043.787450     12.743874
PR22  -3782.924711  10768.312581 -22796.394011    -49.623298
PR23  16298.558965   6757.837542 -18435.824511    158.557528
PR24  25064.312481   -331.326008  -4812.104483   -167.349957
PR26 -24668.640450   -451.508060   6519.777527     25.193031
EOF
